PROGRESS-MS 32          
1 65586U 25204A   25331.89930487  .00004025  00000+0  80753-4 0  9992
2 65586  51.6314 215.9428 0003868 177.5993 182.5015 15.49155559   279
CYGNUS NG-23            
1 65616U 25208A   25331.89930487  .00004025  00000+0  80753-4 0  9990
2 65616  51.6314 215.9428 0003868 177.5993 182.5015 15.49155559   228
DRAGONFLY               
1 65729U 98067XH  25331.96277047  .00130658  00000+0  12021-2 0  9995
2 65729  51.6262 211.1145 0006345 191.7555 168.3294 15.66720424 10842
GHS-01                  
1 65733U 98067XM  25331.99901602  .00155859  00000+0  13318-2 0  9994
2 65733  51.6287 210.6117 0006882 190.1703 169.9155 15.68442285 10864
YOTSUBA-KULOVER         
1 65941U 98067XN  25331.96183020  .00063351  00000+0  85806-3 0  9995
2 65941  51.6290 214.1133 0002403 143.1751 216.9406 15.57080418  7550
BOTAN                   
1 65942U 98067XP  25331.86575440  .00085231  00000+0  10549-2 0  9998
2 65942  51.6293 214.2225 0004606 145.4141 214.7153 15.59346667  7549
E-KAGAKU-1              
1 65943U 98067XQ  25331.96158062  .00062641  00000+0  84931-3 0  9994
2 65943  51.6304 214.1133 0003875 126.2761 233.8589 15.57053935  7559
HTV-X1                  
1 66174U 25241A   25331.89930487  .00004025  00000+0  80753-4 0  9997
2 66174  51.6314 215.9428 0003868 177.5993 182.5015 15.49155559   510
