CCSDS_OMM_VERS = 2.0
CREATION_DATE  = 
ORIGINATOR     = 

OBJECT_NAME    = PROGRESS-MS 32
OBJECT_ID      = 2025-204A
CENTER_NAME    = EARTH
REF_FRAME      = TEME
TIME_SYSTEM    = UTC
MEAN_ELEMENT_THEORY = SGP/SGP4

EPOCH          = 2025-11-27T21:34:59.940768
MEAN_MOTION    = 15.49155559
ECCENTRICITY   = .00038682
INCLINATION    = 51.6314
RA_OF_ASC_NODE = 215.9428
ARG_OF_PERICENTER = 177.5993
MEAN_ANOMALY   = 182.5015

EPHEMERIS_TYPE = 0
CLASSIFICATION_TYPE = U
NORAD_CAT_ID   = 65586
ELEMENT_SET_NO = 999
REV_AT_EPOCH   = 27
BSTAR          = .80752527E-4
MEAN_MOTION_DOT = .4025E-4
MEAN_MOTION_DDOT = 0

CCSDS_OMM_VERS = 2.0
CREATION_DATE  = 
ORIGINATOR     = 

OBJECT_NAME    = CYGNUS NG-23
OBJECT_ID      = 2025-208A
CENTER_NAME    = EARTH
REF_FRAME      = TEME
TIME_SYSTEM    = UTC
MEAN_ELEMENT_THEORY = SGP/SGP4

EPOCH          = 2025-11-27T21:34:59.940768
MEAN_MOTION    = 15.49155559
ECCENTRICITY   = .00038682
INCLINATION    = 51.6314
RA_OF_ASC_NODE = 215.9428
ARG_OF_PERICENTER = 177.5993
MEAN_ANOMALY   = 182.5015

EPHEMERIS_TYPE = 0
CLASSIFICATION_TYPE = U
NORAD_CAT_ID   = 65616
ELEMENT_SET_NO = 999
REV_AT_EPOCH   = 22
BSTAR          = .80752527E-4
MEAN_MOTION_DOT = .4025E-4
MEAN_MOTION_DDOT = 0

CCSDS_OMM_VERS = 2.0
CREATION_DATE  = 
ORIGINATOR     = 

OBJECT_NAME    = DRAGONFLY
OBJECT_ID      = 1998-067XH
CENTER_NAME    = EARTH
REF_FRAME      = TEME
TIME_SYSTEM    = UTC
MEAN_ELEMENT_THEORY = SGP/SGP4

EPOCH          = 2025-11-27T23:06:23.369472
MEAN_MOTION    = 15.66720424
ECCENTRICITY   = .00063445
INCLINATION    = 51.6262
RA_OF_ASC_NODE = 211.1145
ARG_OF_PERICENTER = 191.7555
MEAN_ANOMALY   = 168.3294

EPHEMERIS_TYPE = 0
CLASSIFICATION_TYPE = U
NORAD_CAT_ID   = 65729
ELEMENT_SET_NO = 999
REV_AT_EPOCH   = 1084
BSTAR          = .12020746E-2
MEAN_MOTION_DOT = .130658E-2
MEAN_MOTION_DDOT = 0

CCSDS_OMM_VERS = 2.0
CREATION_DATE  = 
ORIGINATOR     = 

OBJECT_NAME    = GHS-01
OBJECT_ID      = 1998-067XM
CENTER_NAME    = EARTH
REF_FRAME      = TEME
TIME_SYSTEM    = UTC
MEAN_ELEMENT_THEORY = SGP/SGP4

EPOCH          = 2025-11-27T23:58:34.984128
MEAN_MOTION    = 15.68442285
ECCENTRICITY   = .00068822
INCLINATION    = 51.6287
RA_OF_ASC_NODE = 210.6117
ARG_OF_PERICENTER = 190.1703
MEAN_ANOMALY   = 169.9155

EPHEMERIS_TYPE = 0
CLASSIFICATION_TYPE = U
NORAD_CAT_ID   = 65733
ELEMENT_SET_NO = 999
REV_AT_EPOCH   = 1086
BSTAR          = .1331765E-2
MEAN_MOTION_DOT = .155859E-2
MEAN_MOTION_DDOT = 0

CCSDS_OMM_VERS = 2.0
CREATION_DATE  = 
ORIGINATOR     = 

OBJECT_NAME    = YOTSUBA-KULOVER
OBJECT_ID      = 1998-067XN
CENTER_NAME    = EARTH
REF_FRAME      = TEME
TIME_SYSTEM    = UTC
MEAN_ELEMENT_THEORY = SGP/SGP4

EPOCH          = 2025-11-27T23:05:02.129280
MEAN_MOTION    = 15.57080418
ECCENTRICITY   = .00024037
INCLINATION    = 51.6290
RA_OF_ASC_NODE = 214.1133
ARG_OF_PERICENTER = 143.1751
MEAN_ANOMALY   = 216.9406

EPHEMERIS_TYPE = 0
CLASSIFICATION_TYPE = U
NORAD_CAT_ID   = 65941
ELEMENT_SET_NO = 999
REV_AT_EPOCH   = 755
BSTAR          = .85805926E-3
MEAN_MOTION_DOT = .63351E-3
MEAN_MOTION_DDOT = 0

CCSDS_OMM_VERS = 2.0
CREATION_DATE  = 
ORIGINATOR     = 

OBJECT_NAME    = BOTAN
OBJECT_ID      = 1998-067XP
CENTER_NAME    = EARTH
REF_FRAME      = TEME
TIME_SYSTEM    = UTC
MEAN_ELEMENT_THEORY = SGP/SGP4

EPOCH          = 2025-11-27T20:46:41.180160
MEAN_MOTION    = 15.59346667
ECCENTRICITY   = .00046061
INCLINATION    = 51.6293
RA_OF_ASC_NODE = 214.2225
ARG_OF_PERICENTER = 145.4141
MEAN_ANOMALY   = 214.7153

EPHEMERIS_TYPE = 0
CLASSIFICATION_TYPE = U
NORAD_CAT_ID   = 65942
ELEMENT_SET_NO = 999
REV_AT_EPOCH   = 754
BSTAR          = .10548508E-2
MEAN_MOTION_DOT = .85231E-3
MEAN_MOTION_DDOT = 0

CCSDS_OMM_VERS = 2.0
CREATION_DATE  = 
ORIGINATOR     = 

OBJECT_NAME    = E-KAGAKU-1
OBJECT_ID      = 1998-067XQ
CENTER_NAME    = EARTH
REF_FRAME      = TEME
TIME_SYSTEM    = UTC
MEAN_ELEMENT_THEORY = SGP/SGP4

EPOCH          = 2025-11-27T23:04:40.565568
MEAN_MOTION    = 15.57053935
ECCENTRICITY   = .00038752
INCLINATION    = 51.6304
RA_OF_ASC_NODE = 214.1133
ARG_OF_PERICENTER = 126.2761
MEAN_ANOMALY   = 233.8589

EPHEMERIS_TYPE = 0
CLASSIFICATION_TYPE = U
NORAD_CAT_ID   = 65943
ELEMENT_SET_NO = 999
REV_AT_EPOCH   = 755
BSTAR          = .84930638E-3
MEAN_MOTION_DOT = .62641E-3
MEAN_MOTION_DDOT = 0

CCSDS_OMM_VERS = 2.0
CREATION_DATE  = 
ORIGINATOR     = 

OBJECT_NAME    = HTV-X1
OBJECT_ID      = 2025-241A
CENTER_NAME    = EARTH
REF_FRAME      = TEME
TIME_SYSTEM    = UTC
MEAN_ELEMENT_THEORY = SGP/SGP4

EPOCH          = 2025-11-27T21:34:59.940768
MEAN_MOTION    = 15.49155559
ECCENTRICITY   = .00038682
INCLINATION    = 51.6314
RA_OF_ASC_NODE = 215.9428
ARG_OF_PERICENTER = 177.5993
MEAN_ANOMALY   = 182.5015

EPHEMERIS_TYPE = 0
CLASSIFICATION_TYPE = U
NORAD_CAT_ID   = 66174
ELEMENT_SET_NO = 999
REV_AT_EPOCH   = 51
BSTAR          = .80752527E-4
MEAN_MOTION_DOT = .4025E-4
MEAN_MOTION_DDOT = 0

